[{"OBJECT_NAME":"OBJECT J","OBJECT_ID":"2023-085J","EPOCH":"2026-03-09T22:47:59.920512","MEAN_MOTION":15.31507187,"ECCENTRICITY":0.00067028,"INCLINATION":97.4828,"RA_OF_ASC_NODE":180.1819,"ARG_OF_PERICENTER":41.7877,"MEAN_ANOMALY":318.3875,"EPHEMERIS_TYPE":0,"CLASSIFICATION_TYPE":"U","NORAD_CAT_ID":57012,"ELEMENT_SET_NO":999,"REV_AT_EPOCH":15156,"BSTAR":0.00064525349,"MEAN_MOTION_DOT":0.00019595,"MEAN_MOTION_DDOT":0},{"OBJECT_NAME":"STARLINK-32185","OBJECT_ID":"2024-136N","EPOCH":"2026-03-09T06:49:01.073280","MEAN_MOTION":15.3021752,"ECCENTRICITY":0.00016352,"INCLINATION":53.1604,"RA_OF_ASC_NODE":77.4677,"ARG_OF_PERICENTER":79.0304,"MEAN_ANOMALY":281.088,"EPHEMERIS_TYPE":0,"CLASSIFICATION_TYPE":"U","NORAD_CAT_ID":60341,"ELEMENT_SET_NO":999,"REV_AT_EPOCH":8960,"BSTAR":0.00013055525,"MEAN_MOTION_DOT":3.511e-5,"MEAN_MOTION_DDOT":0}]
